NORAD_CAT_ID,OBJECT_NAME,OBJECT_TYPE,EPOCH,MEAN_MOTION,ECCENTRICITY,INCLINATION,RA_OF_ASC_NODE,ARG_OF_PERICENTER,MEAN_ANOMALY,BSTAR,MEAN_MOTION_DOT,MEAN_MOTION_DDOT,TLE_LINE0,TLE_LINE1,TLE_LINE2,SEMIMAJOR_AXIS,PERIOD,APOGEE,PERIGEE,DECAYED
55918.0,STARLINK-5867,PAYLOAD,2023-05-14 14:00:01,15.1460604,0.0003038,70.0021,22.1364,269.5411,200.9808,-0.052021,-0.00893435,0.0,0 STARLINK-5867,1 55918U 23037E   23134.58334491 -.00893435  00000-0 -52021-1 0  9998,2 55918  70.0021  22.1364 0003038 269.5411 200.9808 15.14606040  1308,6900.312,95.074,524.273,520.081,0.0
55918.0,STARLINK-5867,PAYLOAD,2023-05-14 22:00:00,15.13944457,0.0003037,70.0023,21.275,273.1942,213.9563,-0.053599,-0.00902765,0.0,0 STARLINK-5867,1 55918U 23037E   23134.91667824 -.00902765  00000-0 -53599-1 0  9992,2 55918  70.0023  21.2750 0003037 273.1942 213.9563 15.13944457  1306,6902.322,95.116,526.283,522.091,0.0
55918.0,STARLINK-5867,PAYLOAD,2023-05-15 02:00:01,15.13621933,0.0003107,70.0023,20.8445,273.6079,41.5485,-0.05341,-0.00892245,0.0,0 STARLINK-5867,1 55918U 23037E   23135.08334491 -.00892245  00000-0 -53410-1 0  9995,2 55918  70.0023  20.8445 0003107 273.6079  41.5485 15.13621933  9594,6903.302,95.136,527.312,523.023,0.0
55918.0,STARLINK-5867,PAYLOAD,2023-05-15 14:00:01,15.12654781,0.0002954,70.0023,19.5548,268.3962,249.6235,-0.055572,-0.0090265,0.0,0 STARLINK-5867,1 55918U 23037E   23135.58334491 -.00902650  00000-0 -55572-1 0  9993,2 55918  70.0023  19.5548 0002954 268.3962 249.6235 15.12654781  1305,6906.245,95.197,530.15,526.07,0.0
55918.0,STARLINK-5867,PAYLOAD,2023-05-15 16:00:00,15.12521433,0.000305,70.0025,19.34,265.6205,346.031,-0.059173,-0.00953449,0.0,0 STARLINK-5867,1 55918U 23037E   23135.66667824 -.00953449  00000-0 -59173-1 0  9994,2 55918  70.0025  19.3400 0003050 265.6205 346.0310 15.12521433  9682,6906.651,95.205,530.622,526.409,0.0
55918.0,STARLINK-5867,PAYLOAD,2023-05-15 22:00:00,15.11984292,0.0002956,70.0024,18.6959,272.6199,259.6838,-0.056237,-0.00896916,0.0,0 STARLINK-5867,1 55918U 23037E   23135.91667824 -.00896916  00000-0 -56237-1 0  9995,2 55918  70.0024  18.6959 0002956 272.6199 259.6838 15.11984292  1306,6908.286,95.239,532.193,528.109,0.0
55918.0,STARLINK-5867,PAYLOAD,2023-05-16 14:00:01,15.10703571,0.0002981,70.0024,16.9809,266.9434,291.5978,-0.059378,-0.00912638,0.0,0 STARLINK-5867,1 55918U 23037E   23136.58335648 -.00912638  00000-0 -59378-1 0  9994,2 55918  70.0024  16.9809 0002981 266.9434 291.5978 15.10703571  9820,6912.19,95.32,536.116,531.995,0.0
55918.0,STARLINK-5867,PAYLOAD,2023-05-16 22:00:00,15.10022212,0.0002965,70.0024,16.1247,271.9986,298.4197,-0.058699,-0.00887261,0.0,0 STARLINK-5867,1 55918U 23037E   23136.91667824 -.00887261  00000-0 -58699-1 0  9993,2 55918  70.0024  16.1247 0002965 271.9986 298.4197 15.10022212  1308,6914.269,95.363,538.184,534.084,0.0
55918.0,STARLINK-5867,PAYLOAD,2023-05-17 06:00:00,15.09418887,0.0002944,70.0021,15.2693,272.5531,308.9839,-0.065236,-0.00963485,0.0,0 STARLINK-5867,1 55918U 23037E   23137.25001157 -.00963485  00000-0 -65236-1 0  9990,2 55918  70.0021  15.2693 0002944 272.5531 308.9839 15.09418887  9921,6916.112,95.401,540.013,535.94,0.0
55918.0,STARLINK-5867,PAYLOAD,2023-05-17 22:00:00,15.08062357,0.0002962,70.0023,13.5612,271.8229,329.6672,-0.061484,-0.00881087,0.0,0 STARLINK-5867,1 55918U 23037E   23137.91667824 -.00881087  00000-0 -61484-1 0  9990,2 55918  70.0023  13.5612 0002962 271.8229 329.6672 15.08062357 10025,6920.258,95.487,544.173,540.074,0.0
55918.0,STARLINK-5867,PAYLOAD,2023-05-18 14:00:01,15.0679521,0.0003001,70.0022,11.8567,265.9484,352.3242,-0.066758,-0.00921032,0.0,0 STARLINK-5867,1 55918U 23037E   23138.58334491 -.00921032  00000-0 -66758-1 0  9999,2 55918  70.0022  11.8567 0003001 265.9484 352.3242 15.06795210 10122,6924.138,95.567,548.08,543.925,0.0
55918.0,STARLINK-5867,PAYLOAD,2023-05-18 22:00:00,15.06103014,0.0002993,70.002,11.0056,272.2068,353.3153,-0.064375,-0.00875091,0.0,0 STARLINK-5867,1 55918U 23037E   23138.91667824 -.00875091  00000-0 -64375-1 0  9991,2 55918  70.0020  11.0056 0002993 272.2068 353.3153 15.06103014  1300,6926.259,95.611,550.197,546.051,0.0
55918.0,STARLINK-5867,PAYLOAD,2023-05-19 14:00:01,15.04842678,0.0003037,70.0019,9.3061,266.3742,11.2348,-0.07097,-0.00928232,0.0,0 STARLINK-5867,1 55918U 23037E   23139.58334491 -.00928232  00000-0 -70970-1 0  9990,2 55918  70.0019   9.3061 0003037 266.3742  11.2348 15.04842678 10273,6930.126,95.691,554.095,549.886,0.0
55918.0,STARLINK-5867,PAYLOAD,2023-05-19 22:20:46,15.06456708,0.0002973,69.9991,8.4206,263.929,96.1534,-0.014701,-0.00211174,0.0,0 STARLINK-5867,1 55918U 23037E   23139.93109418 -.00211174  00000-0 -14701-1 0  9998,2 55918  69.9991   8.4206 0002973 263.9290  96.1534 15.06456708  9981,6925.175,95.589,549.099,544.981,0.0
55918.0,STARLINK-5867,PAYLOAD,2023-05-20 19:07:11,15.04171353,0.0002784,69.9989,6.2244,286.2482,73.8374,-0.020434,-0.0027362,0.0,0 STARLINK-5867,1 55918U 23037E   23140.79666274 -.00273620  00000-0 -20434-1 0  9996,2 55918  69.9989   6.2244 0002784 286.2482  73.8374 15.04171353 10116,6932.187,95.734,555.982,552.123,0.0
55918.0,STARLINK-5867,PAYLOAD,2023-05-20 22:00:01,15.02189066,0.0003043,70.0014,5.917,273.7469,18.7775,-0.071187,-0.00871623,0.0,0 STARLINK-5867,1 55918U 23037E   23140.91668981 -.00871623  00000-0 -71187-1 0  9995,2 55918  70.0014   5.9170 0003043 273.7469  18.7775 15.02189066 10477,6938.285,95.86,562.261,558.038,0.0
55918.0,STARLINK-5867,PAYLOAD,2023-05-21 14:00:01,15.00934358,0.0003094,70.0012,4.2276,266.8656,28.2955,-0.079665,-0.00948947,0.0,0 STARLINK-5867,1 55918U 23037E   23141.58334491 -.00948947  00000-0 -79665-1 0  9998,2 55918  70.0012   4.2276 0003094 266.8656  28.2955 15.00934358 10578,6942.151,95.94,566.164,561.868,0.0
55918.0,STARLINK-5867,PAYLOAD,2023-05-21 20:42:10,15.02006506,0.0003201,69.998,3.5227,255.3388,104.7418,-0.019291,-0.00244881,0.0,0 STARLINK-5867,1 55918U 23037E   23141.86261702 -.00244881  00000-0 -19291-1 0  9998,2 55918  69.9980   3.5227 0003201 255.3388 104.7418 15.02006506 10270,6938.847,95.872,562.933,558.491,0.0
55918.0,STARLINK-5867,PAYLOAD,2023-05-22 06:00:02,14.99447124,0.0002659,70.0009,2.5412,275.2184,19.6312,-0.020337,-0.00241486,0.0,0 STARLINK-5867,1 55918U 23037E   23142.25002315 -.00241486  00000-0 -20337-1 0  9996,2 55918  70.0009   2.5412 0002659 275.2184  19.6312 14.99447124 10672,6946.74,96.035,570.453,566.758,0.0
55918.0,STARLINK-5867,PAYLOAD,2023-05-22 14:00:01,14.99293549,0.0002567,70.0011,1.6995,267.4691,26.029,0.0019254,0.0002354,0.0,0 STARLINK-5867,1 55918U 23037E   23142.58334491  .00023540  00000-0  19254-2 0  9999,2 55918  70.0011   1.6995 0002567 267.4691  26.0290 14.99293549 10728,6947.215,96.045,570.863,567.296,0.0
55918.0,STARLINK-5867,PAYLOAD,2023-05-22 20:42:33,15.00527292,0.0002538,69.9971,0.9958,257.6969,102.3907,-0.016858,-0.00206926,0.0,0 STARLINK-5867,1 55918U 23037E   23142.86288698 -.00206926  00000-0 -16858-1 0  9996,2 55918  69.9971   0.9958 0002538 257.6969 102.3907 15.00527292 10426,6943.406,95.966,567.033,563.509,0.0
55918.0,STARLINK-5867,PAYLOAD,2023-05-23 06:00:00,14.99310035,0.0002536,70.0009,0.0156,274.4817,16.3111,-0.0036404,-0.00044367,0.0,0 STARLINK-5867,1 55918U 23037E   23143.25001157 -.00044367  00000-0 -36404-2 0  9992,2 55918  70.0009   0.0156 0002536 274.4817  16.3111 14.99310035 10826,6947.164,96.044,570.791,567.267,0.0
55918.0,STARLINK-5867,PAYLOAD,2023-05-23 22:00:00,14.99295166,0.0002588,70.0012,358.3319,274.6998,13.3804,0.00022664,2.68e-05,0.0,0 STARLINK-5867,1 55918U 23037E   23143.91667824  .00002680  00000-0  22664-3 0  9998,2 55918  70.0012 358.3319 0002588 274.6998  13.3804 14.99295166 10923,6947.21,96.045,570.873,567.277,0.0
55918.0,STARLINK-5867,PAYLOAD,2023-05-24 22:00:00,14.99297993,0.0002654,70.0014,355.8065,273.8845,10.1368,0.00057976,7.007e-05,0.0,0 STARLINK-5867,1 55918U 23037E   23144.91667824  .00007007  00000-0  57976-3 0  9991,2 55918  70.0014 355.8065 0002654 273.8845  10.1368 14.99297993  1303,6947.201,96.045,570.91,567.222,0.0
55918.0,STARLINK-5867,PAYLOAD,2023-05-25 06:00:00,14.99319024,0.0002671,70.0013,354.9646,272.1274,10.54,-0.0032537,-0.000397,0.0,0 STARLINK-5867,1 55918U 23037E   23145.25001157 -.00039700  00000-0 -32537-2 0  9992,2 55918  70.0013 354.9646 0002671 272.1274  10.5400 14.99319024 11126,6947.136,96.044,570.857,567.146,0.0
55918.0,STARLINK-5867,PAYLOAD,2023-05-25 14:21:02,14.9930216,0.0002442,69.9997,354.0869,271.8013,88.2867,4.5087e-05,4.58e-06,0.0,0 STARLINK-5867,1 55918U 23037E   23145.59794048  .00000458  00000-0  45087-4 0  9999,2 55918  69.9997 354.0869 0002442 271.8013  88.2867 14.99302160 10834,6947.188,96.045,570.75,567.357,0.0
55918.0,STARLINK-5867,PAYLOAD,2023-05-25 22:00:00,14.99301315,0.0002697,70.0016,353.2813,275.425,4.5597,-0.00034028,-4.255e-05,0.0,0 STARLINK-5867,1 55918U 23037E   23145.91667824 -.00004255  00000-0 -34028-3 0  9999,2 55918  70.0016 353.2813 0002697 275.4250   4.5597 14.99301315 11220,6947.191,96.045,570.929,567.182,0.0
55918.0,STARLINK-5867,PAYLOAD,2023-05-26 00:00:02,14.99290208,0.0002704,70.0015,353.0707,276.4476,93.2663,0.0014523,0.00017716,0.0,0 STARLINK-5867,1 55918U 23037E   23146.00002315  .00017716  00000-0  14523-2 0  9999,2 55918  70.0015 353.0707 0002704 276.4476  93.2663 14.99290208  1304,6947.225,96.045,570.969,567.212,0.0
55918.0,STARLINK-5867,PAYLOAD,2023-05-26 14:00:01,14.99308161,0.0002673,70.0018,351.598,269.3137,7.9535,0.00065101,7.882e-05,0.0,0 STARLINK-5867,1 55918U 23037E   23146.58334491  .00007882  00000-0  65101-3 0  9997,2 55918  70.0018 351.5980 0002673 269.3137   7.9535 14.99308161  1301,6947.17,96.044,570.892,567.178,0.0
55918.0,STARLINK-5867,PAYLOAD,2023-05-26 22:00:01,14.99287324,0.0002667,70.0017,350.7562,277.2852,358.701,0.0018279,0.00022335,0.0,0 STARLINK-5867,1 55918U 23037E   23146.91668981  .00022335  00000-0  18279-2 0  9991,2 55918  70.0017 350.7562 0002667 277.2852 358.7010 14.99287324 11372,6947.234,96.046,570.952,567.246,0.0
